0 FENGYUN 1C DEB
1 31060U 99025BFE 13271.85251028  .00004195  00000-0  91031-3 0  5341
2 31060 099.2040 129.2074 0133334 333.9198 025.6661 14.53336066348237
0 FENGYUN 1C DEB
1 31060U 99025BFE 13275.84548570  .00004266  00000-0  92529-3 0  5358
2 31060 099.2059 133.5951 0133063 321.9512 037.2368 14.53371693348817
0 FENGYUN 1C DEB
1 31060U 99025BFE 13277.84195398  .00004365  00000-0  94434-3 0  5364
2 31060 099.2049 135.7835 0134128 315.8674 043.2377 14.53391538349105
0 FENGYUN 1C DEB
1 31060U 99025BFE 13280.80218020  .00004612  00000-0  99846-3 0  5370
2 31060 099.2047 139.0356 0132860 307.8061 051.1870 14.53423162349532
0 FENGYUN 1C DEB
1 31060U 99025BFE 13281.83479168  .00004771  00000-0  10335-2 0  5388
2 31060 099.2058 140.1772 0132123 305.0577 053.8625 14.53435893349680
0 FENGYUN 1C DEB
1 31060U 99025BFE 13283.83116774  .00004999  00000-0  10831-2 0  5395
2 31060 099.2058 142.3755 0131315 299.4410 059.4295 14.53460230349979
0 FENGYUN 1C DEB
1 31060U 99025BFE 13285.82751163  .00005358  00000-0  11765-2 0  5402
2 31060 099.2095 144.5743 0122304 291.3920 067.6046 14.53488470350261
